{
  "type": "FeatureCollection",
  "features": [
    {
      "type": "Feature",
      "properties": {
        "norad_id": 54741,
        "name": "GALAXY 35 (G-35)",
        "group": "intelsat",
        "lat": -0.02520816170775591,
        "lon": -23.516191643913537,
        "alt_km": 35782.02934764639,
        "timestamp": "2025-12-20T22:39:10.313522+00:00",
        "meta_object_name": "GALAXY 35 (G-35)",
        "meta_object_id": "2022-170A",
        "meta_epoch": "2025-12-20T11:17:55.670208",
        "meta_mean_motion": 1.00272221,
        "meta_eccentricity": 0.00021499,
        "meta_inclination": 0.0149,
        "meta_ra_of_asc_node": 49.7326,
        "meta_arg_of_pericenter": 222.5076,
        "meta_mean_anomaly": 253.4523,
        "meta_ephemeris_type": 0,
        "meta_classification_type": "U",
        "meta_norad_cat_id": 54741,
        "meta_element_set_no": 999,
        "meta_rev_at_epoch": 1110,
        "meta_bstar": 0,
        "meta_mean_motion_dot": -1.39e-06,
        "meta_mean_motion_ddot": 0,
        "tle_line1": "1 54741U 22170A   25354.47078322 -.00000139  00000+0  00000+0 0  9997",
        "tle_line2": "2 54741   0.0149  49.7326 0002149 222.5076 253.4523  1.00272221 11102"
      },
      "geometry": {
        "type": "Point",
        "coordinates": [
          -23.516191643913537,
          -0.02520816170775591
        ]
      }
    },
    {
      "type": "Feature",
      "properties": {
        "norad_id": 54742,
        "name": "GALAXY 36 (G-36)",
        "group": "intelsat",
        "lat": -0.018743806940107095,
        "lon": -19.456505827335523,
        "alt_km": 35785.01436863202,
        "timestamp": "2025-12-20T22:39:10.313532+00:00",
        "meta_object_name": "GALAXY 36 (G-36)",
        "meta_object_id": "2022-170B",
        "meta_epoch": "2025-12-20T05:57:27.900576",
        "meta_mean_motion": 1.00269554,
        "meta_eccentricity": 4.239e-05,
        "meta_inclination": 0.0144,
        "meta_ra_of_asc_node": 13.7124,
        "meta_arg_of_pericenter": 338.7619,
        "meta_mean_anomaly": 96.9725,
        "meta_ephemeris_type": 0,
        "meta_classification_type": "U",
        "meta_norad_cat_id": 54742,
        "meta_element_set_no": 999,
        "meta_rev_at_epoch": 1098,
        "meta_bstar": 0,
        "meta_mean_motion_dot": 0,
        "meta_mean_motion_ddot": 0,
        "tle_line1": "1 54742U 22170B   25354.24823959  .00000000  00000+0  00000+0 0  9993",
        "tle_line2": "2 54742   0.0144  13.7124 0000423 338.7619  96.9725  1.00269554 10985"
      },
      "geometry": {
        "type": "Point",
        "coordinates": [
          -19.456505827335523,
          -0.018743806940107095
        ]
      }
    },
    {
      "type": "Feature",
      "properties": {
        "norad_id": 57493,
        "name": "GALAXY 37 (G-37)",
        "group": "intelsat",
        "lat": -0.036271133994496475,
        "lon": -57.439613237060286,
        "alt_km": 35779.28150378557,
        "timestamp": "2025-12-20T22:39:10.313542+00:00",
        "meta_object_name": "GALAXY 37 (G-37)",
        "meta_object_id": "2023-112A",
        "meta_epoch": "2025-12-20T10:54:51.918048",
        "meta_mean_motion": 1.00270902,
        "meta_eccentricity": 0.00019255,
        "meta_inclination": 0.0163,
        "meta_ra_of_asc_node": 358.7319,
        "meta_arg_of_pericenter": 273.171,
        "meta_mean_anomaly": 214.098,
        "meta_ephemeris_type": 0,
        "meta_classification_type": "U",
        "meta_norad_cat_id": 57493,
        "meta_element_set_no": 999,
        "meta_rev_at_epoch": 875,
        "meta_bstar": 0,
        "meta_mean_motion_dot": 7.2e-07,
        "meta_mean_motion_ddot": 0,
        "tle_line1": "1 57493U 23112A   25354.45476757  .00000072  00000+0  00000+0 0  9998",
        "tle_line2": "2 57493   0.0163 358.7319 0001925 273.1710 214.0980  1.00270902  8759"
      },
      "geometry": {
        "type": "Point",
        "coordinates": [
          -57.439613237060286,
          -0.036271133994496475
        ]
      }
    }
  ]
}